{
    "links": {
        "self": "http://www.neowsapp.com/rest/v1/neo/3791346?api_key=iIulBulltgU6a56xZRHN4H3l9WmuAYTsLGpBGhQ2"
    },
    "id": "3791346",
    "neo_reference_id": "3791346",
    "name": "(2017 XS60)",
    "designation": "2017 XS60",
    "nasa_jpl_url": "http://ssd.jpl.nasa.gov/sbdb.cgi?sstr=3791346",
    "absolute_magnitude_h": 26.2,
    "estimated_diameter": {
        "kilometers": {
            "estimated_diameter_min": 0.0152951935,
            "estimated_diameter_max": 0.0342010925
        },
        "meters": {
            "estimated_diameter_min": 15.2951935344,
            "estimated_diameter_max": 34.201092472
        },
        "miles": {
            "estimated_diameter_min": 0.0095039897,
            "estimated_diameter_max": 0.021251567
        },
        "feet": {
            "estimated_diameter_min": 50.1810827555,
            "estimated_diameter_max": 112.2083122258
        }
    },
    "is_potentially_hazardous_asteroid": false,
    "close_approach_data": [
        {
            "close_approach_date": "2017-12-12",
            "close_approach_date_full": "2017-Dec-12 04:47",
            "epoch_date_close_approach": 1513054020000,
            "relative_velocity": {
                "kilometers_per_second": "19.1359526763",
                "kilometers_per_hour": "68889.4296348211",
                "miles_per_hour": "42805.2125417032"
            },
            "miss_distance": {
                "astronomical": "0.0327813577",
                "lunar": "12.7519481453",
                "kilometers": "4904021.287628099",
                "miles": "3047217.5267778062"
            },
            "orbiting_body": "Earth"
        }
    ],
    "orbital_data": {
        "orbit_id": "6",
        "orbit_determination_date": "2017-12-21 06:28:34",
        "first_observation_date": "2017-12-12",
        "last_observation_date": "2017-12-19",
        "data_arc_in_days": 7,
        "observations_used": 33,
        "orbit_uncertainty": "8",
        "minimum_orbit_intersection": ".0240515",
        "jupiter_tisserand_invariant": "3.939",
        "epoch_osculation": "2458100.5",
        "eccentricity": ".5104533524842493",
        "semi_major_axis": "1.705000226448",
        "inclination": "25.65581134300109",
        "ascending_node_longitude": "260.7723287421632",
        "orbital_period": "813.1770035258321",
        "perihelion_distance": ".8346771448712144",
        "perihelion_argument": "118.1511050661672",
        "aphelion_distance": "2.575323308024786",
        "perihelion_time": "2458056.978425666409",
        "mean_anomaly": "19.2673510098777",
        "mean_motion": ".442708043192424",
        "equinox": "J2000",
        "orbit_class": {
            "orbit_class_type": "APO",
            "orbit_class_description": "Near-Earth asteroid orbits which cross the Earth’s orbit similar to that of 1862 Apollo",
            "orbit_class_range": "a (semi-major axis) > 1.0 AU; q (perihelion) < 1.017 AU"
        }
    },
    "is_sentry_object": false
}